GLOBALSTAR M084         
1 38040U 11080A   24335.34225925 -.00000081  00000+0  12889-3 0  9994
2 38040  52.0017 293.8304 0000652  28.5146 136.1002 12.62271405597554
GLOBALSTAR M080         
1 38041U 11080B   24335.39710677 -.00000092  00000+0  63593-4 0  9994
2 38041  52.0069 295.2015 0000540   1.6482 171.6269 12.62269195597684
GLOBALSTAR M082         
1 38042U 11080C   24335.48925683 -.00000069  00000+0  19269-3 0  9994
2 38042  52.0073 250.3460 0001201  81.8130  90.7477 12.62270208598401
GLOBALSTAR M092         
1 38043U 11080D   24335.77915421 -.00000091  00000+0  72868-4 0  9996
2 38043  52.0102 339.8288 0000397  60.9876 109.6685 12.62269896597104
GLOBALSTAR M090         
1 38044U 11080E   24335.80293978 -.00000078  00000+0  14147-3 0  9997
2 38044  51.9888 243.4543 0000935  78.2343 320.9614 12.62264053598603
GLOBALSTAR M086         
1 38045U 11080F   24335.54157977 -.00000064  00000+0  21936-3 0  9996
2 38045  51.9893 244.7851 0000085 162.7498   8.6946 12.62263908598473
GLOBALSTAR M097         
1 39072U 13005A   24335.53069910 -.00000074  00000+0  16379-3 0  9990
2 39072  52.0016 159.1648 0001019 106.1921 253.9058 12.62268017545722
GLOBALSTAR M093         
1 39073U 13005B   24335.82054807 -.00000093  00000+0  59620-4 0  9990
2 39073  51.9782 151.8994 0001125 109.8420 250.2568 12.62276855545833
